[{"OBJECT_NAME":"IRIDIUM 124","OBJECT_ID":"2017-039H","EPOCH":"2026-04-05T14:26:39.914304","MEAN_MOTION":14.43296176,"ECCENTRICITY":0.00021514,"INCLINATION":86.4486,"RA_OF_ASC_NODE":320.7307,"ARG_OF_PERICENTER":88.7705,"MEAN_ANOMALY":271.3743,"EPHEMERIS_TYPE":0,"CLASSIFICATION_TYPE":"U","NORAD_CAT_ID":42810,"ELEMENT_SET_NO":999,"REV_AT_EPOCH":46464,"BSTAR":0.00013970861,"MEAN_MOTION_DOT":4.9e-6,"MEAN_MOTION_DDOT":0},{"OBJECT_NAME":"IRIDIUM 128","OBJECT_ID":"2017-039J","EPOCH":"2026-04-05T10:34:26.564736","MEAN_MOTION":14.34219661,"ECCENTRICITY":0.00024178,"INCLINATION":86.3958,"RA_OF_ASC_NODE":55.5513,"ARG_OF_PERICENTER":88.9757,"MEAN_ANOMALY":271.1716,"EPHEMERIS_TYPE":0,"CLASSIFICATION_TYPE":"U","NORAD_CAT_ID":42811,"ELEMENT_SET_NO":999,"REV_AT_EPOCH":45955,"BSTAR":0.00011519873,"MEAN_MOTION_DOT":3.42e-6,"MEAN_MOTION_DDOT":0},{"OBJECT_NAME":"IRIDIUM 121","OBJECT_ID":"2017-039K","EPOCH":"2026-04-05T12:55:38.578080","MEAN_MOTION":14.34218773,"ECCENTRICITY":0.00022452,"INCLINATION":86.4017,"RA_OF_ASC_NODE":24.0219,"ARG_OF_PERICENTER":84.7148,"MEAN_ANOMALY":275.4304,"EPHEMERIS_TYPE":0,"CLASSIFICATION_TYPE":"U","NORAD_CAT_ID":42812,"ELEMENT_SET_NO":999,"REV_AT_EPOCH":45941,"BSTAR":6.656455e-6,"MEAN_MOTION_DOT":3.8e-7,"MEAN_MOTION_DDOT":0},{"OBJECT_NAME":"IRIDIUM 133","OBJECT_ID":"2017-061A","EPOCH":"2026-04-05T09:39:38.751840","MEAN_MOTION":14.3421739,"ECCENTRICITY":0.00021459,"INCLINATION":86.3956,"RA_OF_ASC_NODE":55.6835,"ARG_OF_PERICENTER":87.8438,"MEAN_ANOMALY":272.3003,"EPHEMERIS_TYPE":0,"CLASSIFICATION_TYPE":"U","NORAD_CAT_ID":42955,"ELEMENT_SET_NO":999,"REV_AT_EPOCH":44434,"BSTAR":-5.8399262e-5,"MEAN_MOTION_DOT":-1.44e-6,"MEAN_MOTION_DDOT":0},{"OBJECT_NAME":"IRIDIUM 100","OBJECT_ID":"2017-061B","EPOCH":"2026-04-05T14:31:54.669504","MEAN_MOTION":14.3421791,"ECCENTRICITY":0.00022216,"INCLINATION":86.3955,"RA_OF_ASC_NODE":55.5185,"ARG_OF_PERICENTER":89.0064,"MEAN_ANOMALY":271.1387,"EPHEMERIS_TYPE":0,"CLASSIFICATION_TYPE":"U","NORAD_CAT_ID":42956,"ELEMENT_SET_NO":999,"REV_AT_EPOCH":44437,"BSTAR":1.3923145e-5,"MEAN_MOTION_DOT":5.9e-7,"MEAN_MOTION_DDOT":0},{"OBJECT_NAME":"IRIDIUM 122","OBJECT_ID":"2017-061C","EPOCH":"2026-04-05T10:25:18.653088","MEAN_MOTION":14.34217538,"ECCENTRICITY":0.0002144,"INCLINATION":86.3958,"RA_OF_ASC_NODE":55.5901,"ARG_OF_PERICENTER":88.3291,"MEAN_ANOMALY":271.815,"EPHEMERIS_TYPE":0,"CLASSIFICATION_TYPE":"U","NORAD_CAT_ID":42957,"ELEMENT_SET_NO":999,"REV_AT_EPOCH":44435,"BSTAR":4.7473e-5,"MEAN_MOTION_DOT":1.53e-6,"MEAN_MOTION_DDOT":0},{"OBJECT_NAME":"IRIDIUM 129","OBJECT_ID":"2017-061D","EPOCH":"2026-04-05T14:22:46.405344","MEAN_MOTION":14.34220009,"ECCENTRICITY":0.0002047,"INCLINATION":86.3959,"RA_OF_ASC_NODE":55.5875,"ARG_OF_PERICENTER":79.2859,"MEAN_ANOMALY":280.8568,"EPHEMERIS_TYPE":0,"CLASSIFICATION_TYPE":"U","NORAD_CAT_ID":42958,"ELEMENT_SET_NO":999,"REV_AT_EPOCH":44439,"BSTAR":0.00013119955,"MEAN_MOTION_DOT":3.87e-6,"MEAN_MOTION_DDOT":0},{"OBJECT_NAME":"IRIDIUM 119","OBJECT_ID":"2017-061E","EPOCH":"2026-04-05T10:16:10.700832","MEAN_MOTION":14.34217498,"ECCENTRICITY":0.00020473,"INCLINATION":86.3961,"RA_OF_ASC_NODE":55.6547,"ARG_OF_PERICENTER":87.0295,"MEAN_ANOMALY":273.1135,"EPHEMERIS_TYPE":0,"CLASSIFICATION_TYPE":"U","NORAD_CAT_ID":42959,"ELEMENT_SET_NO":999,"REV_AT_EPOCH":44438,"BSTAR":-6.23924e-7,"MEAN_MOTION_DOT":1.8e-7,"MEAN_MOTION_DDOT":0},{"OBJECT_NAME":"IRIDIUM 107","OBJECT_ID":"2017-061F","EPOCH":"2026-04-05T14:04:31.706976","MEAN_MOTION":14.3421551,"ECCENTRICITY":0.00022144,"INCLINATION":86.3961,"RA_OF_ASC_NODE":55.6092,"ARG_OF_PERICENTER":94.6396,"MEAN_ANOMALY":265.5052,"EPHEMERIS_TYPE":0,"CLASSIFICATION_TYPE":"U","NORAD_CAT_ID":42960,"ELEMENT_SET_NO":999,"REV_AT_EPOCH":44441,"BSTAR":0.00014740103,"MEAN_MOTION_DOT":4.33e-6,"MEAN_MOTION_DDOT":0},{"OBJECT_NAME":"IRIDIUM 132","OBJECT_ID":"2017-061G","EPOCH":"2026-04-05T14:13:38.519616","MEAN_MOTION":14.34220042,"ECCENTRICITY":0.00022419,"INCLINATION":86.3959,"RA_OF_ASC_NODE":55.5864,"ARG_OF_PERICENTER":88.9382,"MEAN_ANOMALY":271.207,"EPHEMERIS_TYPE":0,"CLASSIFICATION_TYPE":"U","NORAD_CAT_ID":42961,"ELEMENT_SET_NO":999,"REV_AT_EPOCH":44441,"BSTAR":0.00014495669,"MEAN_MOTION_DOT":4.26e-6,"MEAN_MOTION_DDOT":0},{"OBJECT_NAME":"IRIDIUM 136","OBJECT_ID":"2017-061H","EPOCH":"2026-04-05T09:57:54.650304","MEAN_MOTION":14.34214627,"ECCENTRICITY":0.0002203,"INCLINATION":86.3959,"RA_OF_ASC_NODE":55.667,"ARG_OF_PERICENTER":89.6691,"MEAN_ANOMALY":270.4757,"EPHEMERIS_TYPE":0,"CLASSIFICATION_TYPE":"U","NORAD_CAT_ID":42962,"ELEMENT_SET_NO":999,"REV_AT_EPOCH":44440,"BSTAR":0.00014546,"MEAN_MOTION_DOT":4.27e-6,"MEAN_MOTION_DDOT":0},{"OBJECT_NAME":"IRIDIUM 139","OBJECT_ID":"2017-061J","EPOCH":"2026-04-05T10:07:02.286336","MEAN_MOTION":14.34214676,"ECCENTRICITY":0.00023096,"INCLINATION":86.3959,"RA_OF_ASC_NODE":55.7251,"ARG_OF_PERICENTER":88.8598,"MEAN_ANOMALY":271.2862,"EPHEMERIS_TYPE":0,"CLASSIFICATION_TYPE":"U","NORAD_CAT_ID":42963,"ELEMENT_SET_NO":999,"REV_AT_EPOCH":44441,"BSTAR":0.00012107626,"MEAN_MOTION_DOT":3.59e-6,"MEAN_MOTION_DDOT":0},{"OBJECT_NAME":"IRIDIUM 125","OBJECT_ID":"2017-061K","EPOCH":"2026-04-05T09:48:46.618560","MEAN_MOTION":14.34217469,"ECCENTRICITY":0.00017605,"INCLINATION":86.3961,"RA_OF_ASC_NODE":55.7902,"ARG_OF_PERICENTER":97.255,"MEAN_ANOMALY":262.8846,"EPHEMERIS_TYPE":0,"CLASSIFICATION_TYPE":"U","NORAD_CAT_ID":42964,"ELEMENT_SET_NO":999,"REV_AT_EPOCH":44442,"BSTAR":2.974033e-6,"MEAN_MOTION_DOT":2.8e-7,"MEAN_MOTION_DDOT":0},{"OBJECT_NAME":"IRIDIUM 135","OBJECT_ID":"2017-083A","EPOCH":"2026-04-05T05:50:35.091744","MEAN_MOTION":14.34218764,"ECCENTRICITY":0.0002175,"INCLINATION":86.4017,"RA_OF_ASC_NODE":352.5095,"ARG_OF_PERICENTER":85.0442,"MEAN_ANOMALY":275.1002,"EPHEMERIS_TYPE":0,"CLASSIFICATION_TYPE":"U","NORAD_CAT_ID":43070,"ELEMENT_SET_NO":999,"REV_AT_EPOCH":43369,"BSTAR":5.4853e-5,"MEAN_MOTION_DOT":1.73e-6,"MEAN_MOTION_DDOT":0},{"OBJECT_NAME":"IRIDIUM 138","OBJECT_ID":"2017-083B","EPOCH":"2026-04-05T14:49:27.069888","MEAN_MOTION":14.34218021,"ECCENTRICITY":0.0001751,"INCLINATION":86.4027,"RA_OF_ASC_NODE":352.0377,"ARG_OF_PERICENTER":82.2359,"MEAN_ANOMALY":277.9035,"EPHEMERIS_TYPE":0,"CLASSIFICATION_TYPE":"U","NORAD_CAT_ID":43071,"ELEMENT_SET_NO":999,"REV_AT_EPOCH":43373,"BSTAR":1.8994376e-5,"MEAN_MOTION_DOT":7.3e-7,"MEAN_MOTION_DDOT":0},{"OBJECT_NAME":"IRIDIUM 116","OBJECT_ID":"2017-083C","EPOCH":"2026-04-05T10:42:51.108768","MEAN_MOTION":14.3421926,"ECCENTRICITY":0.00024046,"INCLINATION":86.4015,"RA_OF_ASC_NODE":352.4117,"ARG_OF_PERICENTER":87.3256,"MEAN_ANOMALY":272.8215,"EPHEMERIS_TYPE":0,"CLASSIFICATION_TYPE":"U","NORAD_CAT_ID":43072,"ELEMENT_SET_NO":999,"REV_AT_EPOCH":43374,"BSTAR":0.00013021325,"MEAN_MOTION_DOT":3.84e-6,"MEAN_MOTION_DDOT":0},{"OBJECT_NAME":"IRIDIUM 130","OBJECT_ID":"2017-083D","EPOCH":"2026-04-05T06:36:15.133824","MEAN_MOTION":14.34218414,"ECCENTRICITY":0.0002272,"INCLINATION":86.4024,"RA_OF_ASC_NODE":352.7511,"ARG_OF_PERICENTER":91.532,"MEAN_ANOMALY":268.6136,"EPHEMERIS_TYPE":0,"CLASSIFICATION_TYPE":"U","NORAD_CAT_ID":43073,"ELEMENT_SET_NO":999,"REV_AT_EPOCH":43366,"BSTAR":4.6698e-5,"MEAN_MOTION_DOT":1.51e-6,"MEAN_MOTION_DDOT":0}]
