IRIDIUM 124             
1 42810U 17039H   26095.60185086  .00000490  00000+0  13971-3 0  9997
2 42810  86.4486 320.7307 0002151  88.7705 271.3743 14.43296176464643
IRIDIUM 128             
1 42811U 17039J   26095.44058524  .00000342  00000+0  11520-3 0  9990
2 42811  86.3958  55.5513 0002417  88.9757 271.1716 14.34219661459559
IRIDIUM 121             
1 42812U 17039K   26095.53864095  .00000038  00000+0  66565-5 0  9992
2 42812  86.4017  24.0219 0002245  84.7148 275.4304 14.34218773459416
IRIDIUM 133             
1 42955U 17061A   26095.40253185 -.00000144  00000+0 -58399-4 0  9998
2 42955  86.3956  55.6835 0002145  87.8438 272.3003 14.34217390444346
IRIDIUM 100             
1 42956U 17061B   26095.60549386  .00000059  00000+0  13923-4 0  9999
2 42956  86.3955  55.5185 0002221  89.0064 271.1387 14.34217910444370
IRIDIUM 122             
1 42957U 17061C   26095.43424367  .00000153  00000+0  47473-4 0  9994
2 42957  86.3958  55.5901 0002144  88.3291 271.8150 14.34217538444357
IRIDIUM 129             
1 42958U 17061D   26095.59914821  .00000387  00000+0  13120-3 0  9991
2 42958  86.3959  55.5875 0002047  79.2859 280.8568 14.34220009444394
IRIDIUM 119             
1 42959U 17061E   26095.42790163  .00000018  00000+0 -62392-6 0  9995
2 42959  86.3961  55.6547 0002047  87.0295 273.1135 14.34217498444388
IRIDIUM 107             
1 42960U 17061F   26095.58647809  .00000433  00000+0  14740-3 0  9993
2 42960  86.3961  55.6092 0002214  94.6396 265.5052 14.34215510444417
IRIDIUM 132             
1 42961U 17061G   26095.59280694  .00000426  00000+0  14496-3 0  9990
2 42961  86.3959  55.5864 0002241  88.9382 271.2070 14.34220042444412
IRIDIUM 136             
1 42962U 17061H   26095.41521586  .00000427  00000+0  14546-3 0  9997
2 42962  86.3959  55.6670 0002203  89.6691 270.4757 14.34214627444402
IRIDIUM 139             
1 42963U 17061J   26095.42155424  .00000359  00000+0  12108-3 0  9999
2 42963  86.3959  55.7251 0002309  88.8598 271.2862 14.34214676444414
IRIDIUM 125             
1 42964U 17061K   26095.40887290  .00000028  00000+0  29740-5 0  9996
2 42964  86.3961  55.7902 0001760  97.2550 262.8846 14.34217469444425
IRIDIUM 135             
1 43070U 17083A   26095.24346171  .00000173  00000+0  54853-4 0  9992
2 43070  86.4017 352.5095 0002175  85.0442 275.1002 14.34218764433691
IRIDIUM 138             
1 43071U 17083B   26095.61767442  .00000073  00000+0  18994-4 0  9997
2 43071  86.4027 352.0377 0001751  82.2359 277.9035 14.34218021433733
IRIDIUM 116             
1 43072U 17083C   26095.44642487  .00000384  00000+0  13021-3 0  9990
2 43072  86.4015 352.4117 0002404  87.3256 272.8215 14.34219260433746
IRIDIUM 130             
1 43073U 17083D   26095.27517516  .00000151  00000+0  46698-4 0  9995
2 43073  86.4024 352.7511 0002272  91.5320 268.6136 14.34218414433666
